DOT-1                   
1 44399U 19038P   22146.45430976  .00006369  00000+0  34364-3 0  9999
2 44399  97.6374 114.9921 0022087 210.6100 149.3844 15.14901507159611
SOKRAT                  
1 44404U 19038U   22147.18408882  .00008176  00000+0  41646-3 0  9997
2 44404  97.6326 116.4600 0019131 202.1074 157.9336 15.16896717159796
LUCKY-7                 
1 44406U 19038W   22146.46741206  .00006725  00000+0  35831-3 0  9996
2 44406  97.6363 115.3547 0022146 202.2063 157.8212 15.15329244159636
D-STAR ONE (EXOCONNECT) 
1 44410U 19038AA  22146.72423085  .00014504  00000+0  68694-3 0  9999
2 44410  97.6281 116.7911 0018342 197.6195 162.4405 15.19289719159795
NARSSCUBE-2             
1 44415U 19022E   22146.83297555  .00008382  00000+0  25820-3 0  9991
2 44415  51.6393 222.3509 0011202 340.4906  19.5646 15.34421786156792
DUCHIFAT-3              
1 44854U 19089C   22146.57253396  .00006209  00000+0  48313-3 0  9995
2 44854  36.9648 230.0500 0008083  34.7988  63.0501 15.00966182134642
OPS-SAT                 
1 44878U 19092F   22146.46931786  .00011051  00000+0  51831-3 0  9999
2 44878  97.4799 330.6151 0013622  61.0961 299.1639 15.19758455134854
FLORIPASAT-1            
1 44885U 19093G   22147.02504935  .00003265  00000+0  40702-3 0  9996
2 44885  97.8955 227.7654 0013235 261.2787  98.6871 14.83076019131670
HUSKYSAT-1 (HO-107)     
1 45119U 19071J   22147.08067596  .00021560  00000+0  47719-3 0  9999
2 45119  51.6372 164.3576 0010361  82.0449 278.1712 15.43683787130066
BY70-2                  
1 45857U 20042B   22147.32784558  .00009782  00000+0  13111-2 0  9999
2 45857  97.9541 224.3830 0009246 180.2187 179.8340 14.79567102102339
SALSAT                  
1 46495U 20068K   22146.41434443  .00002466  00000+0  18052-3 0  9992
2 46495  97.7281  87.7107 0016410 359.5065   0.6142 15.04428224 90878
NETSAT-4                
1 46504U 20068U   22146.74446225  .00004933  00000+0  36723-3 0  9996
2 46504  97.7223  86.5800 0014178  44.9809 315.2537 15.03328915 90780
NETSAT-3                
1 46505U 20068V   22146.35979272  .00005175  00000+0  38556-3 0  9992
2 46505  97.7209  86.1206 0012655  55.6702 304.5718 15.03285850 90737
NETSAT-1                
1 46506U 20068W   22146.64157509  .00005801  00000+0  43238-3 0  9995
2 46506  97.7188  86.3337 0010803  59.2052 301.0219 15.03236762 90772
NETSAT-2                
1 46507U 20068X   22146.65073427  .00005638  00000+0  42086-3 0  9991
2 46507  97.7194  86.3372 0009919  65.6302 294.5945 15.03197929 90722
BY70-3                  
1 46839U 20079N   22147.07725964  .00031030  00000+0  74679-3 0  9996
2 46839  97.1985 219.4623 0006280  60.6509 344.2393 15.41211293 86955
SPOC                    
1 46921U 98067RR  22144.81333319  .00341898  00000+0  10985-2 0  9993
2 46921  51.6290  52.2030 0004013 164.7936 195.3191 15.89517465 88245
NEUTRON-1               
1 46923U 98067RT  22144.22833266  .00299512  00000+0  99538-3 0  9993
2 46923  51.6295  55.8134 0003687 156.9828 203.1343 15.88947350 88173
DESCENT                 
1 46927U 98067RX  22145.97593689  .00383388  68219-4  10507-2 0  9996
2 46927  51.6298  45.7086 0004055 186.8028 173.2925 15.93473128 88376
UVSQ-SAT                
1 47438U 21006AB  22147.08667060  .00006915  00000+0  36819-3 0  9994
2 47438  97.4386 206.5372 0011475 357.5323   2.5851 15.15482242 74046
SOMP2B                  
1 47445U 21006AJ  22146.88246515  .00006487  00000+0  34858-3 0  9992
2 47445  97.4360 206.0215 0011269   2.9772 357.1525 15.15182826 74005
RSP-01                  
1 47925U 98067SB  22144.49016277  .00526851  12445-3  13063-2 0  9997
2 47925  51.6291  62.8068 0005126 172.3334 187.7753 15.95304158 68047
TSURU                   
1 47927U 98067SD  22144.20015073  .00245909  00000+0  10755-2 0  9998
2 47927  51.6334  68.4126 0004711 141.3292 218.8049 15.83429577 67944
MAYA-2                  
1 47929U 98067SF  22146.47530900  .00229593  00000+0  97315-3 0  9991
2 47929  51.6336  56.6025 0004712 161.3218 198.7959 15.84134980 68260
GUARANISAT-1            
1 47931U 98067SH  22144.75343464  .00255147  00000+0  10965-2 0  9999
2 47931  51.6312  65.3701 0004346 146.1113 214.0168 15.83777666 68035
DIY-1 (ARDUIQUBE)       
1 47963U 21022AH  22146.45790787  .00017386  00000+0  98638-3 0  9999
2 47963  97.5349  48.0810 0016227 200.7084 159.3491 15.12909766 63623
